{"type": "FeatureCollection", "features": [ {"type": "Feature", "properties": {"norad_id": 34682, "name": "COSMOS 2251 DEB", "group": "cosmos-2251-debris", "lat": 63.727624086583475, "lon": -124.13014405796899, "alt_km": 695.5054244535631, "timestamp": "2025-12-08T08:59:01.161402+00:00", "meta": {"OBJECT_NAME": "COSMOS 2251 DEB", "OBJECT_ID": "1993-036YC", "EPOCH": "2025-12-07T18:21:21.019104", "MEAN_MOTION": 14.58839239, "ECCENTRICITY": 0.00185867, "INCLINATION": 74.0401, "RA_OF_ASC_NODE": 92.4621, "ARG_OF_PERICENTER": 225.6975, "MEAN_ANOMALY": 285.9615, "EPHEMERIS_TYPE": 0, "CLASSIFICATION_TYPE": "U", "NORAD_CAT_ID": 34682, "ELEMENT_SET_NO": 999, "REV_AT_EPOCH": 88613, "BSTAR": 0.0015345378, "MEAN_MOTION_DOT": 7.175e-05, "MEAN_MOTION_DDOT": 0}, "tle": {"line1": "1 34682U 93036YC  25341.76482661  .00007175  00000+0  15345-2 0  9998", "line2": "2 34682  74.0401  92.4621 0018586 225.6975 285.9615 14.58839239886133"}}, "geometry": {"type": "Point", "coordinates": [-124.13014405796899, 63.727624086583475]}}, {"type": "Feature", "properties": {"norad_id": 34683, "name": "COSMOS 2251 DEB", "group": "cosmos-2251-debris", "lat": 3.460699467627672, "lon": -80.33056770624351, "alt_km": 670.9704511285063, "timestamp": "2025-12-08T08:59:01.161412+00:00", "meta": {"OBJECT_NAME": "COSMOS 2251 DEB", "OBJECT_ID": "1993-036YD", "EPOCH": "2025-12-06T19:01:34.135680", "MEAN_MOTION": 14.64356013, "ECCENTRICITY": 0.00186175, "INCLINATION": 74.0295, "RA_OF_ASC_NODE": 103.7007, "ARG_OF_PERICENTER": 218.7009, "MEAN_ANOMALY": 263.542, "EPHEMERIS_TYPE": 0, "CLASSIFICATION_TYPE": "U", "NORAD_CAT_ID": 34683, "ELEMENT_SET_NO": 999, "REV_AT_EPOCH": 88261, "BSTAR": 0.0025066813, "MEAN_MOTION_DOT": 0.00013271, "MEAN_MOTION_DDOT": 0}, "tle": {"line1": "1 34683U 93036YD  25340.79275620  .00013271  00000+0  25067-2 0  9992", "line2": "2 34683  74.0295 103.7007 0018617 218.7009 263.5420 14.64356013882611"}}, "geometry": {"type": "Point", "coordinates": [-80.33056770624351, 3.460699467627672]}}, {"type": "Feature", "properties": {"norad_id": 34685, "name": "COSMOS 2251 DEB", "group": "cosmos-2251-debris", "lat": 69.13285967195853, "lon": -154.21574792841304, "alt_km": 704.4944992789033, "timestamp": "2025-12-08T08:59:01.161422+00:00", "meta": {"OBJECT_NAME": "COSMOS 2251 DEB", "OBJECT_ID": "1993-036YF", "EPOCH": "2025-12-07T11:21:29.393568", "MEAN_MOTION": 14.57434643, "ECCENTRICITY": 0.00143577, "INCLINATION": 74.0286, "RA_OF_ASC_NODE": 158.7949, "ARG_OF_PERICENTER": 262.8372, "MEAN_ANOMALY": 127.8329, "EPHEMERIS_TYPE": 0, "CLASSIFICATION_TYPE": "U", "NORAD_CAT_ID": 34685, "ELEMENT_SET_NO": 999, "REV_AT_EPOCH": 88455, "BSTAR": 0.0016724134, "MEAN_MOTION_DOT": 7.58e-05, "MEAN_MOTION_DDOT": 0}, "tle": {"line1": "1 34685U 93036YF  25341.47325687  .00007580  00000+0  16724-2 0  9995", "line2": "2 34685  74.0286 158.7949 0014357 262.8372 127.8329 14.57434643884551"}}, "geometry": {"type": "Point", "coordinates": [-154.21574792841304, 69.13285967195853]}}, {"type": "Feature", "properties": {"norad_id": 34689, "name": "COSMOS 2251 DEB", "group": "cosmos-2251-debris", "lat": 32.99944129150016, "lon": -118.33866103576334, "alt_km": 883.6091563383989, "timestamp": "2025-12-08T08:59:01.161433+00:00", "meta": {"OBJECT_NAME": "COSMOS 2251 DEB", "OBJECT_ID": "1993-036YK", "EPOCH": "2025-12-07T17:42:44.786304", "MEAN_MOTION": 14.04340408, "ECCENTRICITY": 0.02290881, "INCLINATION": 74.0894, "RA_OF_ASC_NODE": 232.0928, "ARG_OF_PERICENTER": 302.0324, "MEAN_ANOMALY": 114.2751, "EPHEMERIS_TYPE": 0, "CLASSIFICATION_TYPE": "U", "NORAD_CAT_ID": 34689, "ELEMENT_SET_NO": 999, "REV_AT_EPOCH": 84271, "BSTAR": 0.0067174131, "MEAN_MOTION_DOT": 0.00013501, "MEAN_MOTION_DDOT": 0}, "tle": {"line1": "1 34689U 93036YK  25341.73801836  .00013501  00000+0  67174-2 0  9998", "line2": "2 34689  74.0894 232.0928 0229088 302.0324 114.2751 14.04340408842714"}}, "geometry": {"type": "Point", "coordinates": [-118.33866103576334, 32.99944129150016]}}, {"type": "Feature", "properties": {"norad_id": 34721, "name": "COSMOS 2251 DEB", "group": "cosmos-2251-debris", "lat": 1.5648829701871045, "lon": 153.3721219100783, "alt_km": 918.5919172383201, "timestamp": "2025-12-08T08:59:01.161443+00:00", "meta": {"OBJECT_NAME": "COSMOS 2251 DEB", "OBJECT_ID": "1993-036YP", "EPOCH": "2025-12-07T17:30:48.340224", "MEAN_MOTION": 13.96814375, "ECCENTRICITY": 0.0223878, "INCLINATION": 73.9235, "RA_OF_ASC_NODE": 334.9412, "ARG_OF_PERICENTER": 274.797, "MEAN_ANOMALY": 265.9045, "EPHEMERIS_TYPE": 0, "CLASSIFICATION_TYPE": "U", "NORAD_CAT_ID": 34721, "ELEMENT_SET_NO": 999, "REV_AT_EPOCH": 85079, "BSTAR": 0.0026086731, "MEAN_MOTION_DOT": 4.456e-05, "MEAN_MOTION_DDOT": 0}, "tle": {"line1": "1 34721U 93036YP  25341.72972616  .00004456  00000+0  26087-2 0  9996", "line2": "2 34721  73.9235 334.9412 0223878 274.7970 265.9045 13.96814375850797"}}, "geometry": {"type": "Point", "coordinates": [153.3721219100783, 1.5648829701871045]}}, {"type": "Feature", "properties": {"norad_id": 34722, "name": "COSMOS 2251 DEB", "group": "cosmos-2251-debris", "lat": 11.729103808756935, "lon": 160.41099792322618, "alt_km": 877.9479726542977, "timestamp": "2025-12-08T08:59:01.161454+00:00", "meta": {"OBJECT_NAME": "COSMOS 2251 DEB", "OBJECT_ID": "1993-036YQ", "EPOCH": "2025-12-07T10:47:55.777632", "MEAN_MOTION": 14.11908346, "ECCENTRICITY": 0.01673368, "INCLINATION": 73.8725, "RA_OF_ASC_NODE": 345.5028, "ARG_OF_PERICENTER": 271.968, "MEAN_ANOMALY": 240.9578, "EPHEMERIS_TYPE": 0, "CLASSIFICATION_TYPE": "U", "NORAD_CAT_ID": 34722, "ELEMENT_SET_NO": 999, "REV_AT_EPOCH": 86170, "BSTAR": 0.001438553, "MEAN_MOTION_DOT": 2.973e-05, "MEAN_MOTION_DDOT": 0}, "tle": {"line1": "1 34722U 93036YQ  25341.44995113  .00002973  00000+0  14386-2 0  9994", "line2": "2 34722  73.8725 345.5028 0167336 271.9680 240.9578 14.11908346861702"}}, "geometry": {"type": "Point", "coordinates": [160.41099792322618, 11.729103808756935]}}, {"type": "Feature", "properties": {"norad_id": 34726, "name": "COSMOS 2251 DEB", "group": "cosmos-2251-debris", "lat": 8.029777201826139, "lon": 172.33649515537843, "alt_km": 669.2888642901089, "timestamp": "2025-12-08T08:59:01.161464+00:00", "meta": {"OBJECT_NAME": "COSMOS 2251 DEB", "OBJECT_ID": "1993-036YU", "EPOCH": "2025-12-07T19:02:29.160384", "MEAN_MOTION": 14.59454681, "ECCENTRICITY": 0.00422265, "INCLINATION": 74.029, "RA_OF_ASC_NODE": 355.7595, "ARG_OF_PERICENTER": 148.1191, "MEAN_ANOMALY": 212.2543, "EPHEMERIS_TYPE": 0, "CLASSIFICATION_TYPE": "U", "NORAD_CAT_ID": 34726, "ELEMENT_SET_NO": 999, "REV_AT_EPOCH": 88430, "BSTAR": 0.00069238514, "MEAN_MOTION_DOT": 3.296e-05, "MEAN_MOTION_DDOT": 0}, "tle": {"line1": "1 34726U 93036YU  25341.79339306  .00003296  00000+0  69239-3 0  9999", "line2": "2 34726  74.0290 355.7595 0042226 148.1191 212.2543 14.59454681884305"}}, "geometry": {"type": "Point", "coordinates": [172.33649515537843, 8.029777201826139]}}, {"type": "Feature", "properties": {"norad_id": 34728, "name": "COSMOS 2251 DEB", "group": "cosmos-2251-debris", "lat": -48.697500714505345, "lon": 99.29347075583239, "alt_km": 693.5219460205226, "timestamp": "2025-12-08T08:59:01.161474+00:00", "meta": {"OBJECT_NAME": "COSMOS 2251 DEB", "OBJECT_ID": "1993-036YW", "EPOCH": "2025-12-06T05:19:50.065536", "MEAN_MOTION": 14.70746647, "ECCENTRICITY": 0.00408299, "INCLINATION": 74.0179, "RA_OF_ASC_NODE": 264.4359, "ARG_OF_PERICENTER": 63.9353, "MEAN_ANOMALY": 296.6012, "EPHEMERIS_TYPE": 0, "CLASSIFICATION_TYPE": "U", "NORAD_CAT_ID": 34728, "ELEMENT_SET_NO": 999, "REV_AT_EPOCH": 88704, "BSTAR": 0.0014731687, "MEAN_MOTION_DOT": 9.083e-05, "MEAN_MOTION_DDOT": 0}, "tle": {"line1": "1 34728U 93036YW  25340.22210724  .00009083  00000+0  14732-2 0  9997", "line2": "2 34728  74.0179 264.4359 0040829  63.9353 296.6012 14.70746647887048"}}, "geometry": {"type": "Point", "coordinates": [99.29347075583239, -48.697500714505345]}}, {"type": "Feature", "properties": {"norad_id": 34729, "name": "COSMOS 2251 DEB", "group": "cosmos-2251-debris", "lat": 54.631364263101354, "lon": 30.888705212197944, "alt_km": 612.8195046812871, "timestamp": "2025-12-08T08:59:01.161485+00:00", "meta": {"OBJECT_NAME": "COSMOS 2251 DEB", "OBJECT_ID": "1993-036YX", "EPOCH": "2025-12-07T20:33:26.275968", "MEAN_MOTION": 14.82590678, "ECCENTRICITY": 0.00119204, "INCLINATION": 74.018, "RA_OF_ASC_NODE": 8.1005, "ARG_OF_PERICENTER": 130.169, "MEAN_ANOMALY": 45.6955, "EPHEMERIS_TYPE": 0, "CLASSIFICATION_TYPE": "U", "NORAD_CAT_ID": 34729, "ELEMENT_SET_NO": 999, "REV_AT_EPOCH": 88385, "BSTAR": 0.0030838868, "MEAN_MOTION_DOT": 0.0002491, "MEAN_MOTION_DDOT": 0}, "tle": {"line1": "1 34729U 93036YX  25341.85655412  .00024910  00000+0  30839-2 0  9997", "line2": "2 34729  74.0180   8.1005 0011920 130.1690  45.6955 14.82590678883850"}}, "geometry": {"type": "Point", "coordinates": [30.888705212197944, 54.631364263101354]}}, {"type": "Feature", "properties": {"norad_id": 34732, "name": "COSMOS 2251 DEB", "group": "cosmos-2251-debris", "lat": 56.592281303126285, "lon": -104.36235681156681, "alt_km": 748.4556532654578, "timestamp": "2025-12-08T08:59:01.161495+00:00", "meta": {"OBJECT_NAME": "COSMOS 2251 DEB", "OBJECT_ID": "1993-036ZA", "EPOCH": "2025-12-07T14:14:11.696352", "MEAN_MOTION": 14.47291522, "ECCENTRICITY": 0.0040463, "INCLINATION": 74.0447, "RA_OF_ASC_NODE": 102.8024, "ARG_OF_PERICENTER": 254.7728, "MEAN_ANOMALY": 117.0353, "EPHEMERIS_TYPE": 0, "CLASSIFICATION_TYPE": "U", "NORAD_CAT_ID": 34732, "ELEMENT_SET_NO": 999, "REV_AT_EPOCH": 88069, "BSTAR": 0.00029300217, "MEAN_MOTION_DOT": 1.055e-05, "MEAN_MOTION_DDOT": 0}, "tle": {"line1": "1 34732U 93036ZA  25341.59319093  .00001055  00000+0  29300-3 0  9991", "line2": "2 34732  74.0447 102.8024 0040463 254.7728 117.0353 14.47291522880694"}}, "geometry": {"type": "Point", "coordinates": [-104.36235681156681, 56.592281303126285]}}]}